{
    "links": {
        "self": "http://www.neowsapp.com/rest/v1/neo/3883113?api_key=iIulBulltgU6a56xZRHN4H3l9WmuAYTsLGpBGhQ2"
    },
    "id": "3883113",
    "neo_reference_id": "3883113",
    "name": "(2019 UH8)",
    "designation": "2019 UH8",
    "nasa_jpl_url": "http://ssd.jpl.nasa.gov/sbdb.cgi?sstr=3883113",
    "absolute_magnitude_h": 24.4,
    "estimated_diameter": {
        "kilometers": {
            "estimated_diameter_min": 0.0350392641,
            "estimated_diameter_max": 0.0783501764
        },
        "meters": {
            "estimated_diameter_min": 35.0392641108,
            "estimated_diameter_max": 78.3501764334
        },
        "miles": {
            "estimated_diameter_min": 0.0217723826,
            "estimated_diameter_max": 0.0486845275
        },
        "feet": {
            "estimated_diameter_min": 114.9582192654,
            "estimated_diameter_max": 257.0543928497
        }
    },
    "is_potentially_hazardous_asteroid": false,
    "close_approach_data": [
        {
            "close_approach_date": "2019-10-17",
            "close_approach_date_full": "2019-Oct-17 00:59",
            "epoch_date_close_approach": 1571273940000,
            "relative_velocity": {
                "kilometers_per_second": "14.2389617384",
                "kilometers_per_hour": "51260.2622583541",
                "miles_per_hour": "31851.1335126979"
            },
            "miss_distance": {
                "astronomical": "0.0639132774",
                "lunar": "24.8622649086",
                "kilometers": "9561290.163759138",
                "miles": "5941110.2148185844"
            },
            "orbiting_body": "Earth"
        }
    ],
    "orbital_data": {
        "orbit_id": "3",
        "orbit_determination_date": "2019-10-30 08:03:55",
        "first_observation_date": "2019-10-25",
        "last_observation_date": "2019-10-30",
        "data_arc_in_days": 5,
        "observations_used": 45,
        "orbit_uncertainty": "8",
        "minimum_orbit_intersection": ".00469974",
        "jupiter_tisserand_invariant": "3.224",
        "epoch_osculation": "2458783.5",
        "eccentricity": ".6220123767289085",
        "semi_major_axis": "2.406287736974854",
        "inclination": "4.303049179489381",
        "ascending_node_longitude": "12.10073418434952",
        "orbital_period": "1363.388930404521",
        "perihelion_distance": ".9095469826054985",
        "perihelion_argument": "323.7550569666161",
        "aphelion_distance": "3.90302849134421",
        "perihelion_time": "2458740.758953795233",
        "mean_anomaly": "11.28568399711946",
        "mean_motion": ".2640479117673246",
        "equinox": "J2000",
        "orbit_class": {
            "orbit_class_type": "APO",
            "orbit_class_description": "Near-Earth asteroid orbits which cross the Earth’s orbit similar to that of 1862 Apollo",
            "orbit_class_range": "a (semi-major axis) > 1.0 AU; q (perihelion) < 1.017 AU"
        }
    },
    "is_sentry_object": false
}